{
  "norad_id": 43275,
  "name": "YAOGAN-31 01A",
  "history": [
    {
      "epoch": "2026-03-28T22:36:05.115168Z",
      "apogee_km": 1289.4719291667607,
      "perigee_km": 888.5841803352578,
      "latitude_deg": 5.27712304489288e-06,
      "longitude_deg": 132.37644611351422,
      "height_km": 891.7947013418773,
      "semi_major_axis_km": 7467.165054751009,
      "eccentricity": 0.02684337,
      "inclination_deg": 63.3957,
      "raan_deg": 297.7527,
      "arg_perigee_deg": 7.2176,
      "mean_anomaly_deg": 353.2595,
      "mean_motion_rev_day": 13.45454871
    },
    {
      "epoch": "2026-03-29T03:57:09.953856Z",
      "apogee_km": 1289.4876670603362,
      "perigee_km": 888.5681168464653,
      "latitude_deg": -4.081092745373915e-05,
      "longitude_deg": 51.31279012082709,
      "height_km": 891.7804991312125,
      "semi_major_axis_km": 7467.1648919534,
      "eccentricity": 0.0268455,
      "inclination_deg": 63.3957,
      "raan_deg": 297.179,
      "arg_perigee_deg": 7.2218,
      "mean_anomaly_deg": 353.2555,
      "mean_motion_rev_day": 13.45454915
    }
  ]
}